API VERSION: 1.0
API SOURCE: NASA/JPL Horizons API

*******************************************************************************
JPL/HORIZONS                     (2010 RF12)               2024-Jun-26 08:54:44
Rec #:50112254 (+COV) Soln.date: 2022-Dec-20_14:32:45    # obs: 339 (2010-2022)
 
IAU76/J2000 helio. ecliptic osc. elements (au, days, deg., period=Julian yrs):
 
  EPOCH=  2458723.5 ! 2019-Aug-28.00 (TDB)         Residual RMS= .15939
   EC= .188300316306117    QR= .8608172774007701   TP= 2458710.2783779432
   OM= 163.8382053126509   W=  267.5834164863695   IN= .88262192268168
   A= 1.060512027654566    MA= 11.93205962627146   ADIST= 1.260206777908363
   PER= 1.09215            N= .902465641           ANGMOM= .017398028
   DAN= 1.0311             DDN= 1.01485            L= 71.4213354
   B= -.8818369            MOID= .00060881         TP= 2019-Aug-14.7783779432
 
Asteroid physical parameters (km, seconds, rotational period in hours):
   GM= n.a.                RAD= n.a.               ROTPER= n.a.
   H= 28.42                G= .150                 B-V= n.a.
                           ALBEDO= n.a.            STYP= n.a.

Asteroid non-gravitational force model (AMRAT= m^2/kg;A1,A2,A3=au/d^2;R0=au):
   AMRAT=  0.
   A1= 3.410408739001E-11  A2= -2.121587385773E-13 A3= -1.507549080998E-11
 Non-standard or simulated/proxy model:
   ALN=  1.            NK=  0.       NM=  2.       NN=  0.       R0=  1.

ASTEROID comments: 
1: soln ref.= JPL#25, OCC=2
2: source=ORB; Nongravitational accels. using nonstandard g(r) = (1 au/ r)^2
*******************************************************************************


*******************************************************************************
Ephemeris / WWW_USER Wed Jun 26 08:54:44 2024 Pasadena, USA      / Horizons    
*******************************************************************************
Target body name: (2010 RF12)                     {source: JPL#25}
Center body name: Earth (399)                     {source: DE441}
Center-site name: GEOCENTRIC
*******************************************************************************
Start time      : A.D. 2024-Jan-01 00:00:00.0000 UT      
Stop  time      : A.D. 2044-Jan-01 00:00:00.0000 UT      
Step-size       : 1440 minutes
*******************************************************************************
Target pole/equ : undefined
Target radii    : undefined                                                    
Center geodetic : 0.0, 0.0, -6378.137             {E-lon(deg),Lat(deg),Alt(km)}
Center cylindric: 0.0, 0.0, 0.0                   {E-lon(deg),Dxy(km),Dz(km)}
Center pole/equ : ITRF93                          {East-longitude positive}
Center radii    : 6378.137, 6378.137, 6356.752 km {Equator_a, b, pole_c}       
Target primary  : Sun
Vis. interferer : MOON (R_eq= 1737.400) km        {source: DE441}
Rel. light bend : Sun                             {source: DE441}
Rel. lght bnd GM: 1.3271E+11 km^3/s^2                                          
Small-body perts: Yes                             {source: SB441-N16}
Atmos refraction: NO (AIRLESS)
RA format       : HMS
Time format     : CAL 
Calendar mode   : Mixed Julian/Gregorian
EOP file        : eop.240624.p240917                                           
EOP coverage    : DATA-BASED 1962-JAN-20 TO 2024-JUN-24. PREDICTS-> 2024-SEP-16
Units conversion: 1 au= 149597870.700 km, c= 299792.458 km/s, 1 day= 86400.0 s 
Table cut-offs 1: Elevation (-90.0deg=NO ),Airmass (>38.000=NO), Daylight (NO )
Table cut-offs 2: Solar elongation (  0.0,180.0=NO ),Local Hour Angle( 0.0=NO )
Table cut-offs 3: RA/DEC angular rate (     0.0=NO )                           
*******************************************************************************
Initial IAU76/J2000 heliocentric ecliptic osculating elements (au, days, deg.):
  EPOCH=  2458723.5 ! 2019-Aug-28.00 (TDB)         Residual RMS= .15939        
   EC= .188300316306117    QR= .8608172774007701   TP= 2458710.2783779432      
   OM= 163.8382053126509   W=  267.5834164863695   IN= .88262192268168         
  Equivalent ICRF heliocentric cartesian coordinates (au, au/d):
   X= 1.331475597199136E-02  Y= 8.006964616358292E-01  Z= 3.330973219299668E-01
  VX=-2.004200641413116E-02 VY= 1.150053525571033E-03 VZ= 5.715995844761607E-04
Asteroid physical parameters (km, seconds, rotational period in hours):        
   GM= n.a.                RAD= n.a.               ROTPER= n.a.                
   H= 28.42                G= .150                 B-V= n.a.                   
                           ALBEDO= n.a.            STYP= n.a.                  
Asteroid non-gravitational force model (AMRAT= m^2/kg;A1,A2,A3=au/d^2;R0=au):  
   AMRAT=  0.                                                                  
   A1= 3.410408739001E-11  A2= -2.121587385773E-13 A3= -1.507549080998E-11     
 Non-standard or simulated/proxy model:                                        
   ALN=  1.            NK=  0.       NM=  2.       NN=  0.       R0=  1.       
**********************************************************************************************************************************************
 Date__(UT)__HR:MN     R.A._____(ICRF)_____DEC  dRA*cosD d(DEC)/dt    APmag   S-brt             delta      deldot     S-O-T /r     S-T-O  Cnst
**********************************************************************************************************************************************
$$SOE
 2038-Jun-06 00:00     08 16 26.20 +19 47 01.0  149.6408  -33.1538   31.016    n.a.  1.42840996890350   5.0176753   46.9547 /T   45.2190   Cnc
 2038-Jun-07 00:00     08 20 40.04 +19 33 47.0  148.9306  -33.9630   31.024    n.a.  1.43134064660853   5.1301256   47.0173 /T   45.1100   Cnc
 2038-Jun-08 00:00     08 24 52.33 +19 20 13.7  148.2174  -34.7487   31.032    n.a.  1.43433572013922   5.2406770   47.0768 /T   44.9989   Cnc
 2038-Jun-09 00:00     08 29 03.05 +19 06 21.5  147.5015  -35.5108   31.040    n.a.  1.43739411726816   5.3494170   47.1331 /T   44.8858   Cnc
 2038-Jun-10 00:00     08 33 12.20 +18 52 11.1  146.7838  -36.2494   31.048    n.a.  1.44051481999951   5.4564452   47.1863 /T   44.7708   Cnc
 2038-Jun-11 00:00     08 37 19.79 +18 37 43.1  146.0647  -36.9647   31.056    n.a.  1.44369687042931   5.5618690   47.2363 /T   44.6540   Cnc
 2038-Jun-12 00:00     08 41 25.81 +18 22 58.0  145.3452  -37.6568   31.064    n.a.  1.44693937298858   5.6657953   47.2831 /T   44.5354   Cnc
 2038-Jun-13 00:00     08 45 30.27 +18 07 56.2  144.6260  -38.3259   31.072    n.a.  1.45024149106692   5.7683191   47.3266 /T   44.4151   Cnc
 2038-Jun-14 00:00     08 49 33.16 +17 52 38.5  143.9083  -38.9724   31.080    n.a.  1.45360243577131   5.8695078   47.3670 /T   44.2932   Cnc
 2038-Jun-15 00:00     08 53 34.50 +17 37 05.4  143.1930  -39.5966   31.088    n.a.  1.45702144545186   5.9693859   47.4041 /T   44.1697   Cnc
 2038-Jun-16 00:00     08 57 34.29 +17 21 17.2  142.4811  -40.1989   31.096    n.a.  1.46049775701627   6.0679227   47.4379 /T   44.0447   Cnc
 2038-Jun-17 00:00     09 01 32.55 +17 05 14.7  141.7738  -40.7797   31.104    n.a.  1.46403057335364   6.1650319   47.4684 /T   43.9182   Cnc
 2038-Jun-18 00:00     09 05 29.28 +16 48 58.3  141.0717  -41.3394   31.112    n.a.  1.46761903364246   6.2605821   47.4956 /T   43.7903   Cnc
 2038-Jun-19 00:00     09 09 24.50 +16 32 28.4  140.3755  -41.8784   31.120    n.a.  1.47126219309038   6.3544177   47.5195 /T   43.6610   Cnc
 2038-Jun-20 00:00     09 13 18.23 +16 15 45.7  139.6856  -42.3971   31.127    n.a.  1.47495901548735   6.4463812   47.5402 /T   43.5304   Cnc
 2038-Jun-21 00:00     09 17 10.48 +15 58 50.5  139.0024  -42.8959   31.135    n.a.  1.47870837763009   6.5363312   47.5575 /T   43.3985   Cnc
 2038-Jun-22 00:00     09 21 01.26 +15 41 43.4  138.3260  -43.3752   31.143    n.a.  1.48250908154843   6.6241510   47.5715 /T   43.2653   Cnc
 2038-Jun-23 00:00     09 24 50.61 +15 24 24.8  137.6565  -43.8352   31.151    n.a.  1.48635986966300   6.7097505   47.5822 /T   43.1309   Leo
 2038-Jun-24 00:00     09 28 38.52 +15 06 55.1  136.9939  -44.2763   31.159    n.a.  1.49025943905244   6.7930620   47.5896 /T   42.9953   Leo
 2038-Jun-25 00:00     09 32 25.03 +14 49 14.9  136.3385  -44.6987   31.167    n.a.  1.49420645275104   6.8740342   47.5938 /T   42.8585   Leo
 2038-Jun-26 00:00     09 36 10.15 +14 31 24.6  135.6902  -45.1030   31.174    n.a.  1.49819954753506   6.9526266   47.5948 /T   42.7206   Leo
 2038-Jun-27 00:00     09 39 53.90 +14 13 24.6  135.0491  -45.4893   31.182    n.a.  1.50223733866434   7.0288046   47.5925 /T   42.5817   Leo
 2038-Jun-28 00:00     09 43 36.29 +13 55 15.3  134.4153  -45.8580   31.190    n.a.  1.50631842257537   7.1025374   47.5869 /T   42.4416   Leo
 2038-Jun-29 00:00     09 47 17.35 +13 36 57.1  133.7889  -46.2094   31.197    n.a.  1.51044137875296   7.1737972   47.5782 /T   42.3006   Leo
 2038-Jun-30 00:00     09 50 57.10 +13 18 30.6  133.1697  -46.5438   31.205    n.a.  1.51460477207174   7.2425616   47.5664 /T   42.1586   Leo
 2038-Jul-01 00:00     09 54 35.56 +12 59 56.0  132.5577  -46.8614   31.213    n.a.  1.51880715683978   7.3088173   47.5514 /T   42.0157   Leo
 2038-Jul-02 00:00     09 58 12.74 +12 41 13.8  131.9530  -47.1627   31.220    n.a.  1.52304708355287   7.3725654   47.5332 /T   41.8719   Leo
 2038-Jul-03 00:00     10 01 48.66 +12 22 24.3  131.3553  -47.4478   31.228    n.a.  1.52732310891899   7.4338271   47.5120 /T   41.7273   Leo
 2038-Jul-04 00:00     10 05 23.35 +12 03 28.0  130.7645  -47.7169   31.235    n.a.  1.53163380902615   7.4926491   47.4877 /T   41.5818   Leo
 2038-Jul-05 00:00     10 08 56.82 +11 44 25.3  130.1806  -47.9703   31.242    n.a.  1.53597779471484   7.5491052   47.4604 /T   41.4356   Leo
 2038-Jul-06 00:00     10 12 29.09 +11 25 16.4  129.6035  -48.2082   31.250    n.a.  1.54035372751739   7.6032966   47.4300 /T   41.2886   Leo
 2038-Jul-07 00:00     10 16 00.19 +11 06 01.9  129.0331  -48.4308   31.257    n.a.  1.54476033419383   7.6553471   47.3967 /T   41.1410   Leo
 2038-Jul-08 00:00     10 19 30.12 +10 46 42.0  128.4696  -48.6384   31.264    n.a.  1.54919641804280   7.7053966   47.3604 /T   40.9927   Leo
 2038-Jul-09 00:00     10 22 58.92 +10 27 17.1  127.9132  -48.8313   31.272    n.a.  1.55366086565786   7.7535920   47.3211 /T   40.8438   Leo
